{
    "links": {
        "self": "http://www.neowsapp.com/rest/v1/neo/3559783?api_key=iIulBulltgU6a56xZRHN4H3l9WmuAYTsLGpBGhQ2"
    },
    "id": "3559783",
    "neo_reference_id": "3559783",
    "name": "(2011 EL47)",
    "designation": "2011 EL47",
    "nasa_jpl_url": "http://ssd.jpl.nasa.gov/sbdb.cgi?sstr=3559783",
    "absolute_magnitude_h": 20.0,
    "estimated_diameter": {
        "kilometers": {
            "estimated_diameter_min": 0.2658,
            "estimated_diameter_max": 0.5943468684
        },
        "meters": {
            "estimated_diameter_min": 265.8,
            "estimated_diameter_max": 594.3468684194
        },
        "miles": {
            "estimated_diameter_min": 0.1651604118,
            "estimated_diameter_max": 0.369309908
        },
        "feet": {
            "estimated_diameter_min": 872.047272,
            "estimated_diameter_max": 1949.9569797852
        }
    },
    "is_potentially_hazardous_asteroid": false,
    "close_approach_data": [
        {
            "close_approach_date": "2011-02-03",
            "close_approach_date_full": "2011-Feb-03 18:51",
            "epoch_date_close_approach": 1296759060000,
            "relative_velocity": {
                "kilometers_per_second": "22.0655292",
                "kilometers_per_hour": "79435.9051199928",
                "miles_per_hour": "49358.3822674755"
            },
            "miss_distance": {
                "astronomical": "0.450470313",
                "lunar": "175.232951757",
                "kilometers": "67389399.32303331",
                "miles": "41873831.023987278"
            },
            "orbiting_body": "Earth"
        }
    ],
    "orbital_data": {
        "orbit_id": "6",
        "orbit_determination_date": "2019-07-16 06:14:39",
        "first_observation_date": "2011-03-11",
        "last_observation_date": "2011-03-12",
        "data_arc_in_days": 1,
        "observations_used": 18,
        "orbit_uncertainty": "9",
        "minimum_orbit_intersection": ".282198",
        "jupiter_tisserand_invariant": "3.723",
        "epoch_osculation": "2455631.5",
        "eccentricity": ".8500414043735607",
        "semi_major_axis": "1.630738748597901",
        "inclination": "25.42703415957418",
        "ascending_node_longitude": "182.6941876125345",
        "orbital_period": "760.6327367480704",
        "perihelion_distance": ".2445432925733583",
        "perihelion_argument": "188.9905132216855",
        "aphelion_distance": "3.016934204622443",
        "perihelion_time": "2455543.246171775646",
        "mean_anomaly": "41.76966967869337",
        "mean_motion": ".4732901735719479",
        "equinox": "J2000",
        "orbit_class": {
            "orbit_class_type": "APO",
            "orbit_class_description": "Near-Earth asteroid orbits which cross the Earth’s orbit similar to that of 1862 Apollo",
            "orbit_class_range": "a (semi-major axis) > 1.0 AU; q (perihelion) < 1.017 AU"
        }
    },
    "is_sentry_object": false
}